EUTELSAT QUANTUM        
1 49056U 21069B   25273.82285374  .00000128  00000+0  00000+0 0  9999
2 49056   0.0331 286.9397 0002458 283.3258 143.5056  1.00272722 15325
EUTELSAT KONNECT VHTS   
1 53765U 22110A   25273.35785189  .00000019  00000+0  00000+0 0  9995
2 53765   0.0535 103.5589 0003126  62.2691 335.0683  1.00270664  4222
EUTELSAT HOTBIRD 13F    
1 54048U 22134A   25274.08933545  .00000089  00000+0  00000+0 0  9995
2 54048   0.0637 284.1604 0002007  85.5639  45.5425  1.00270986 10772
EUTELSAT HOTBIRD 13G    
1 54225U 22146A   25274.08933545  .00000089  00000+0  00000+0 0  9995
2 54225   0.0549 239.3734 0002140 290.2206 245.6811  1.00271098  4860
EUTELSAT 10B            
1 54259U 22157A   25274.08933545  .00000070  00000+0  00000+0 0  9994
2 54259   0.0538 100.8648 0001919  14.5869 296.8253  1.00271670 10418
EUTELSAT 36D            
1 59346U 24059A   25274.13447639  .00000157  00000+0  00000+0 0  9995
2 59346   0.0161 188.3869 0000275 273.9371 352.0664  1.00271535  5540
